[
  {
    "OBJECT_NAME": "DIWATA-2B",
    "OBJECT_ID": "2018-084H",
    "EPOCH": "2025-05-31T20:09:48.817440",
    "MEAN_MOTION": 14.98298623,
    "ECCENTRICITY": 0.0006787,
    "INCLINATION": 98.1044,
    "RA_OF_ASC_NODE": 327.6302,
    "ARG_OF_PERICENTER": 328.3233,
    "MEAN_ANOMALY": 31.7579,
    "EPHEMERIS_TYPE": 0,
    "CLASSIFICATION_TYPE": "U",
    "NORAD_CAT_ID": 43678,
    "ELEMENT_SET_NO": 999,
    "REV_AT_EPOCH": 35907,
    "BSTAR": 0.00025801,
    "MEAN_MOTION_DOT": 3.007e-05,
    "MEAN_MOTION_DDOT": 0
  },
  {
    "OBJECT_NAME": "ES'HAIL 2",
    "OBJECT_ID": "2018-090A",
    "EPOCH": "2025-05-31T12:27:04.070304",
    "MEAN_MOTION": 1.00269398,
    "ECCENTRICITY": 0.0001738,
    "INCLINATION": 0.0188,
    "RA_OF_ASC_NODE": 318.6629,
    "ARG_OF_PERICENTER": 143.1042,
    "MEAN_ANOMALY": 0.0497,
    "EPHEMERIS_TYPE": 0,
    "CLASSIFICATION_TYPE": "U",
    "NORAD_CAT_ID": 43700,
    "ELEMENT_SET_NO": 999,
    "REV_AT_EPOCH": 2385,
    "BSTAR": 0,
    "MEAN_MOTION_DOT": 1.38e-06,
    "MEAN_MOTION_DDOT": 0
  },
  {
    "OBJECT_NAME": "FOX-1CLIFF (AO-95)",
    "OBJECT_ID": "2018-099N",
    "EPOCH": "2025-05-31T03:37:45.725952",
    "MEAN_MOTION": 15.17051926,
    "ECCENTRICITY": 0.0009371,
    "INCLINATION": 97.4914,
    "RA_OF_ASC_NODE": 209.3418,
    "ARG_OF_PERICENTER": 238.483,
    "MEAN_ANOMALY": 121.5488,
    "EPHEMERIS_TYPE": 0,
    "CLASSIFICATION_TYPE": "U",
    "NORAD_CAT_ID": 43770,
    "ELEMENT_SET_NO": 999,
    "REV_AT_EPOCH": 35512,
    "BSTAR": 0.00043148,
    "MEAN_MOTION_DOT": 8.483e-05,
    "MEAN_MOTION_DDOT": 0
  },
  {
    "OBJECT_NAME": "ITASAT",
    "OBJECT_ID": "2018-099AE",
    "EPOCH": "2025-05-31T14:48:06.873408",
    "MEAN_MOTION": 15.1281027,
    "ECCENTRICITY": 0.0013093,
    "INCLINATION": 97.4565,
    "RA_OF_ASC_NODE": 206.163,
    "ARG_OF_PERICENTER": 232.2741,
    "MEAN_ANOMALY": 127.7304,
    "EPHEMERIS_TYPE": 0,
    "CLASSIFICATION_TYPE": "U",
    "NORAD_CAT_ID": 43786,
    "ELEMENT_SET_NO": 999,
    "REV_AT_EPOCH": 35510,
    "BSTAR": 0.00033048,
    "MEAN_MOTION_DOT": 5.751e-05,
    "MEAN_MOTION_DDOT": 0
  },
  {
    "OBJECT_NAME": "JY1SAT (JO-97)",
    "OBJECT_ID": "2018-099AX",
    "EPOCH": "2025-05-31T10:31:09.336000",
    "MEAN_MOTION": 15.20608038,
    "ECCENTRICITY": 0.0008292,
    "INCLINATION": 97.4661,
    "RA_OF_ASC_NODE": 210.5976,
    "ARG_OF_PERICENTER": 165.9959,
    "MEAN_ANOMALY": 194.1508,
    "EPHEMERIS_TYPE": 0,
    "CLASSIFICATION_TYPE": "U",
    "NORAD_CAT_ID": 43803,
    "ELEMENT_SET_NO": 999,
    "REV_AT_EPOCH": 35538,
    "BSTAR": 0.00050999,
    "MEAN_MOTION_DOT": 0.00011129,
    "MEAN_MOTION_DDOT": 0
  },
  {
    "OBJECT_NAME": "UWE-4",
    "OBJECT_ID": "2018-111E",
    "EPOCH": "2025-05-31T11:45:35.075520",
    "MEAN_MOTION": 15.25627734,
    "ECCENTRICITY": 0.0010137,
    "INCLINATION": 97.5906,
    "RA_OF_ASC_NODE": 64.2258,
    "ARG_OF_PERICENTER": 237.1068,
    "MEAN_ANOMALY": 122.9195,
    "EPHEMERIS_TYPE": 0,
    "CLASSIFICATION_TYPE": "U",
    "NORAD_CAT_ID": 43880,
    "ELEMENT_SET_NO": 999,
    "REV_AT_EPOCH": 35224,
    "BSTAR": 0.00052028,
    "MEAN_MOTION_DOT": 0.00013183,
    "MEAN_MOTION_DDOT": 0
  },
  {
    "OBJECT_NAME": "DUCHIFAT-3",
    "OBJECT_ID": "2019-089C",
    "EPOCH": "2025-05-31T20:13:16.861728",
    "MEAN_MOTION": 15.45790718,
    "ECCENTRICITY": 0.0004845,
    "INCLINATION": 36.9439,
    "RA_OF_ASC_NODE": 50.7217,
    "ARG_OF_PERICENTER": 261.7205,
    "MEAN_ANOMALY": 98.3003,
    "EPHEMERIS_TYPE": 0,
    "CLASSIFICATION_TYPE": "U",
    "NORAD_CAT_ID": 44854,
    "ELEMENT_SET_NO": 999,
    "REV_AT_EPOCH": 30159,
    "BSTAR": 0.00083327,
    "MEAN_MOTION_DOT": 0.00041632,
    "MEAN_MOTION_DDOT": 0
  },
  {
    "OBJECT_NAME": "TIANYAN 01",
    "OBJECT_ID": "2019-093C",
    "EPOCH": "2025-05-31T20:54:28.890144",
    "MEAN_MOTION": 14.85582118,
    "ECCENTRICITY": 0.0012353,
    "INCLINATION": 97.7926,
    "RA_OF_ASC_NODE": 227.7029,
    "ARG_OF_PERICENTER": 258.9073,
    "MEAN_ANOMALY": 101.0754,
    "EPHEMERIS_TYPE": 0,
    "CLASSIFICATION_TYPE": "U",
    "NORAD_CAT_ID": 44881,
    "ELEMENT_SET_NO": 999,
    "REV_AT_EPOCH": 29478,
    "BSTAR": 0.00011579,
    "MEAN_MOTION_DOT": 9.49e-06,
    "MEAN_MOTION_DDOT": 0
  },
  {
    "OBJECT_NAME": "RS-44 & BREEZE-KM R/B",
    "OBJECT_ID": "2019-096E",
    "EPOCH": "2025-05-31T17:16:08.776128",
    "MEAN_MOTION": 12.79740736,
    "ECCENTRICITY": 0.0216592,
    "INCLINATION": 82.5225,
    "RA_OF_ASC_NODE": 233.164,
    "ARG_OF_PERICENTER": 316.5259,
    "MEAN_ANOMALY": 41.8939,
    "EPHEMERIS_TYPE": 0,
    "CLASSIFICATION_TYPE": "U",
    "NORAD_CAT_ID": 44909,
    "ELEMENT_SET_NO": 999,
    "REV_AT_EPOCH": 25360,
    "BSTAR": 4.858e-05,
    "MEAN_MOTION_DOT": 2.2e-07,
    "MEAN_MOTION_DDOT": 0
  },
  {
    "OBJECT_NAME": "SALSAT",
    "OBJECT_ID": "2020-068K",
    "EPOCH": "2025-05-31T11:33:25.704864",
    "MEAN_MOTION": 15.22610759,
    "ECCENTRICITY": 0.0011115,
    "INCLINATION": 97.8605,
    "RA_OF_ASC_NODE": 129.0913,
    "ARG_OF_PERICENTER": 184.7084,
    "MEAN_ANOMALY": 175.4049,
    "EPHEMERIS_TYPE": 0,
    "CLASSIFICATION_TYPE": "U",
    "NORAD_CAT_ID": 46495,
    "ELEMENT_SET_NO": 999,
    "REV_AT_EPOCH": 25714,
    "BSTAR": 0.00029284,
    "MEAN_MOTION_DOT": 6.742e-05,
    "MEAN_MOTION_DDOT": 0
  },
  {
    "OBJECT_NAME": "LEDSAT",
    "OBJECT_ID": "2021-073D",
    "EPOCH": "2025-05-31T18:37:43.285152",
    "MEAN_MOTION": 15.59513515,
    "ECCENTRICITY": 0.0010723,
    "INCLINATION": 97.389,
    "RA_OF_ASC_NODE": 232.953,
    "ARG_OF_PERICENTER": 115.7498,
    "MEAN_ANOMALY": 244.4867,
    "EPHEMERIS_TYPE": 0,
    "CLASSIFICATION_TYPE": "U",
    "NORAD_CAT_ID": 49069,
    "ELEMENT_SET_NO": 999,
    "REV_AT_EPOCH": 21006,
    "BSTAR": 0.00073182,
    "MEAN_MOTION_DOT": 0.00058391,
    "MEAN_MOTION_DDOT": 0
  },
  {
    "OBJECT_NAME": "XW-3 (CAS-9)",
    "OBJECT_ID": "2021-131B",
    "EPOCH": "2025-05-31T20:55:28.376544",
    "MEAN_MOTION": 14.40802779,
    "ECCENTRICITY": 0.0004877,
    "INCLINATION": 98.5099,
    "RA_OF_ASC_NODE": 241.2676,
    "ARG_OF_PERICENTER": 149.1166,
    "MEAN_ANOMALY": 211.031,
    "EPHEMERIS_TYPE": 0,
    "CLASSIFICATION_TYPE": "U",
    "NORAD_CAT_ID": 50466,
    "ELEMENT_SET_NO": 999,
    "REV_AT_EPOCH": 18019,
    "BSTAR": 0.00019301,
    "MEAN_MOTION_DOT": 5.74e-06,
    "MEAN_MOTION_DDOT": 0
  },
  {
    "OBJECT_NAME": "GREENCUBE (IO-117)",
    "OBJECT_ID": "2022-080E",
    "EPOCH": "2025-05-31T02:19:38.428320",
    "MEAN_MOTION": 6.4258402,
    "ECCENTRICITY": 0.0008718,
    "INCLINATION": 70.14,
    "RA_OF_ASC_NODE": 71.1167,
    "ARG_OF_PERICENTER": 10.9271,
    "MEAN_ANOMALY": 349.1577,
    "EPHEMERIS_TYPE": 0,
    "CLASSIFICATION_TYPE": "U",
    "NORAD_CAT_ID": 53109,
    "ELEMENT_SET_NO": 999,
    "REV_AT_EPOCH": 6751,
    "BSTAR": 0,
    "MEAN_MOTION_DOT": -3e-08,
    "MEAN_MOTION_DDOT": 0
  },
  {
    "OBJECT_NAME": "STRATOSAT-TK 1 (RS52S)",
    "OBJECT_ID": "2023-091B",
    "EPOCH": "2025-05-31T20:55:14.319264",
    "MEAN_MOTION": 15.39549617,
    "ECCENTRICITY": 0.0006853,
    "INCLINATION": 97.5527,
    "RA_OF_ASC_NODE": 215.083,
    "ARG_OF_PERICENTER": 347.9029,
    "MEAN_ANOMALY": 12.2051,
    "EPHEMERIS_TYPE": 0,
    "CLASSIFICATION_TYPE": "U",
    "NORAD_CAT_ID": 57167,
    "ELEMENT_SET_NO": 999,
    "REV_AT_EPOCH": 10667,
    "BSTAR": 0.0008441,
    "MEAN_MOTION_DOT": 0.00033226,
    "MEAN_MOTION_DDOT": 0
  }
]