DIWATA-2B               
1 43678U 18084H   25151.84014835  .00003007  00000+0  25801-3 0  9994
2 43678  98.1044 327.6302 0006787 328.3233  31.7579 14.98298623359079
ES'HAIL 2               
1 43700U 18090A   25151.51879711  .00000138  00000+0  00000+0 0  9995
2 43700   0.0188 318.6629 0001738 143.1042   0.0497  1.00269398 23858
FOX-1CLIFF (AO-95)      
1 43770U 18099N   25151.15122368  .00008483  00000+0  43148-3 0  9995
2 43770  97.4914 209.3418 0009371 238.4830 121.5488 15.17051926355124
ITASAT                  
1 43786U 18099AE  25151.61674622  .00005751  00000+0  33048-3 0  9991
2 43786  97.4565 206.1630 0013093 232.2741 127.7304 15.12810270355106
JY1SAT (JO-97)          
1 43803U 18099AX  25151.43830250  .00011129  00000+0  50999-3 0  9992
2 43803  97.4661 210.5976 0008292 165.9959 194.1508 15.20608038355383
UWE-4                   
1 43880U 18111E   25151.48998930  .00013183  00000+0  52028-3 0  9994
2 43880  97.5906  64.2258 0010137 237.1068 122.9195 15.25627734352244
DUCHIFAT-3              
1 44854U 19089C   25151.84255627  .00041632  00000+0  83327-3 0  9996
2 44854  36.9439  50.7217 0004845 261.7205  98.3003 15.45790718301595
TIANYAN 01              
1 44881U 19093C   25151.87116771  .00000949  00000+0  11579-3 0  9996
2 44881  97.7926 227.7029 0012353 258.9073 101.0754 14.85582118294785
RS-44 & BREEZE-KM R/B   
1 44909U 19096E   25151.71954602  .00000022  00000+0  48580-4 0  9991
2 44909  82.5225 233.1640 0216592 316.5259  41.8939 12.79740736253603
SALSAT                  
1 46495U 20068K   25151.48154751  .00006742  00000+0  29284-3 0  9999
2 46495  97.8605 129.0913 0011115 184.7084 175.4049 15.22610759257148
LEDSAT                  
1 49069U 21073D   25151.77619543  .00058391  00000+0  73182-3 0  9996
2 49069  97.3890 232.9530 0010723 115.7498 244.4867 15.59513515210062
XW-3 (CAS-9)            
1 50466U 21131B   25151.87185621  .00000574  00000+0  19301-3 0  9993
2 50466  98.5099 241.2676 0004877 149.1166 211.0310 14.40802779180194
GREENCUBE (IO-117)      
1 53109U 22080E   25151.09697255 -.00000003  00000+0  00000+0 0  9999
2 53109  70.1400  71.1167 0008718  10.9271 349.1577  6.42584020 67515
STRATOSAT-TK 1 (RS52S)  
1 57167U 23091B   25151.87169351  .00033226  00000+0  84410-3 0  9990
2 57167  97.5527 215.0830 0006853 347.9029  12.2051 15.39549617106679
